EUTELSAT 8 WEST B       
1 40875U 15039B   25210.40502906 -.00000067  00000+0  00000+0 0  9990
2 40875   0.0635   3.6649 0003676 123.3486 318.0960  1.00271153 36429
EUTELSAT 9B             
1 41310U 16005A   25210.55121190  .00000061  00000+0  00000+0 0  9990
2 41310   0.0300  63.7170 0001212  71.0715  20.0558  1.00271507 34881
EUTELSAT 65 WEST A      
1 41382U 16014A   25210.53647850 -.00000276  00000+0  00000+0 0  9992
2 41382   0.0505 350.2057 0002371 137.5369 307.5933  1.00270090 34308
EUTELSAT 117 WEST B     
1 41589U 16038B   25210.52625178 -.00000012  00000+0  00000+0 0  9993
2 41589   0.0137 199.4889 0000147 229.6315 310.7580  1.00271208 33425
EUTELSAT 172B           
1 42741U 17029B   25210.44611617 -.00000007  00000+0  00000+0 0  9993
2 42741   0.0185 145.6738 0000115 273.5723 220.6804  1.00272518 30476
EUTELSAT 7C             
1 44334U 19034B   25210.55069190  .00000047  00000+0  00000+0 0  9999
2 44334   0.0728 189.3648 0003334 283.1117  40.1870  1.00271505  3602
EUTELSAT 5 WEST B       
1 44624U 19067A   25209.69188522 -.00000046  00000+0  00000+0 0  9991
2 44624   0.0897 312.1828 0003254 171.6973  66.7945  1.00270741 21191
EUTELSAT KONNECT        
1 45027U 20005B   25210.26533780  .00000047  00000+0  00000+0 0  9998
2 45027   0.0572  92.4013 0001133  95.4263 222.0408  1.00269955 21086
